#aV2007  8 14  0  0   .00000000      96 DD+AD WGS84 FIT  NGA
## 1440 172800.00000000   900.00000000 54326  .0000000000000
+   31     1  2  3  4  5  6  7  8  9 10 11 12 13 14 16 17 18
+         19 20 21 22 23 24 25 26 27 28 29 30 31 32  0  0  0
+          0  0  0  0  0  0  0  0  0  0  0  0  0  0  0  0  0
+          0  0  0  0  0  0  0  0  0  0  0  0  0  0  0  0  0
+          0  0  0  0  0  0  0  0  0  0  0  0  0  0  0  0  0
++         0  0  0  0  0  0  0  0  0  0  0  0  0  0  0  0  0
++         0  0  0  0  0  0  0  0  0  0  0  0  0  0  0  0  0
++         0  0  0  0  0  0  0  0  0  0  0  0  0  0  0  0  0
++         0  0  0  0  0  0  0  0  0  0  0  0  0  0  0  0  0
++         0  0  0  0  0  0  0  0  0  0  0  0  0  0  0  0  0
%c cc cc ccc ccc cccc cccc cccc cccc ccccc ccccc ccccc ccccc
%c cc cc ccc ccc cccc cccc cccc cccc ccccc ccccc ccccc ccccc
%f  0.0000000  0.000000000  0.00000000000  0.000000000000000
%f  0.0000000  0.000000000  0.00000000000  0.000000000000000
%i    0    0    0    0      0      0      0      0         0
%i    0    0    0    0      0      0      0      0         0
/*      NGA, ST. LOUIS,MO.                                  
/*   EPHEMERIS COMPUTED FROM  3 DAYS OF DATA                
/* CCCCCCCCCCCCCCCCCCCCCCCCCCCCCCCCCCCCCCCCCCCCCCCCCCCCCCCCC
/* CCCCCCCCCCCCCCCCCCCCCCCCCCCCCCCCCCCCCCCCCCCCCCCCCCCCCCCCC
*  2007  8 14 16 30   .00000000                                                 
P  1   7567.208892 -16760.549431  19340.274359    146.052034                    
V  1  22643.027551  -8218.784496 -16228.162272       .023209                    
P  2   6577.816729  19374.764473  16895.865129    129.019885                    
V  2 -18999.390790 -10786.921328  19240.375239       .027905                    
P  3  -2073.342245 -16805.518838 -20615.467339    101.275167                    
V  3  22838.037383 -12265.177820   8128.072266       .054805                    
P  4  -6583.604825  14259.772629  21321.062443      1.554791                    
V  4 -22506.073620 -15512.426099   3768.750418      -.022782                    
P  5  14920.391163   7429.530659  20459.909571    290.568169                    
V  5   -925.961826  26587.029494  -8720.812184       .391364                    
P  6  24563.414283  -5229.386593   8888.313252    245.383317                    
V  6  -8339.291353   7972.984446  28307.230818       .020056                    
P  7  24599.629402  -7494.029549   7084.261543    148.614917                    
V  7  -5923.544926   7030.284761  29400.163538      -.219176                    
P  8 -14860.117525   6540.363213 -21222.709368   -118.856656                    
V  8 -20738.008160 -16559.394998   9027.712533      -.015439                    
P  9  21579.760526  15602.833165  -2058.719874     83.193867                    
V  9  -2876.498409   1030.380084 -31619.921496       .017217                    
P 10   1424.847131  25637.891749  -6217.021286    106.119260                    
V 10  -3578.846192   7454.699718  30798.505927       .005366                    
P 11 -23948.133376 -11842.905655   -733.710051     22.176491                    
V 11   2703.547277  -3880.016877 -29967.891776       .005980                    
P 12  12022.982854  14336.828848  18974.837017    -52.678835                    
V 12  -3364.089299  23657.427584 -15759.847842      -.012756                    
P 13 -24767.865690   4629.702485   8248.472504    198.259564                    
V 13   9122.090343  -5637.426576  30191.176897       .031106                    
P 14  19231.516583 -15478.907394   9755.314765     35.485960                    
V 14  11938.377993  -3308.090291 -29125.176252       .021577                    
P 16   2474.267539 -26353.294428   -323.434005    169.336100                    
V 16   2883.966833   -211.730251  31937.017710       .024271                    
P 17 -20325.179928  15186.563288   7635.505189     57.852213                    
V 17  -9983.602289   1513.888389 -29791.894087      -.012672                    
P 18  15368.143872  -7466.420585 -20090.863581   -240.596258                    
V 18  -1992.292350  25933.788356 -11425.498946       .015273                    
P 19 -12516.784159 -10779.738544 -20728.035859     58.220232                    
V 19  24425.092926 -10374.628326  -9178.900993       .027086                    
P 20 -13561.157263 -10689.827296  20086.631182    -28.120871                    
V 20   3032.861004 -25602.266892 -11486.908267      -.005216                    
P 21  21374.685722   1382.076912 -15924.350252     78.647149                    
V 21  15064.189093  13780.172366  20641.922860      -.000626                    
P 22  11736.245463 -20168.117106 -12488.568904    194.414178                    
V 22    473.191641  16358.932452 -25693.544510       .011692                    
P 23 -20860.297256  -2574.597188  16290.891732    191.069314                    
V 23  18129.700372 -10159.984514  21284.454673       .036322                    
P 24  22697.270649  11448.914575  -6959.116406     22.804734                    
V 24   5319.998257   8109.677053  30111.003131       .028917                    
P 25 -23737.257956  -5315.939576 -10117.809629    407.054189                    
V 25 -10344.654338  -8989.177607  28139.429720       .134891                    
P 26   8672.913368  12213.999660 -22424.506763   -366.692827                    
V 26 -25130.368196  10538.535549  -3522.624932      -.228277                    
P 27 -21075.811085   -186.910021 -15646.602561    128.844142                    
V 27 -16887.276411 -12580.540063  21783.343490       .022934                    
P 28 -12610.342995  17206.003261 -15257.518444     -4.914716                    
V 28    -38.115437 -20255.667358 -22652.674081      -.007090                    
P 29   3837.175205  14121.289122 -21939.791329      5.065807                    
V 29 -25808.975654  11605.599001   3302.299735       .002049                    
P 30  15353.520630    474.580720  21347.244920     42.488354                    
V 30  -1284.698805  27888.873092    408.210770       .011987                    
P 31   2604.204035 -16087.855025  21154.122335     12.851834                    
V 31  22125.200202  14453.688484   8416.867971      -.011520                    
P 32   5111.906671 -26096.116673   -943.380451     11.338227                    
V 32   1995.168801   2124.774114 -31921.935000       .187302                    
EOF
